SL-8 R/B                
1 19257U 88053B   26102.25624955  .00000135  00000+0  52248-4 0  9990
2 19257  74.0482  50.5885 0021116 225.0701 297.1641 14.38937359981426
COSMOS 1975             
1 19573U 88093A   26101.98568809  .00004032  00000+0  14374-3 0  9996
2 19573  82.5167  84.2401 0013058  59.7129 300.5400 15.28530946 24499
SL-14 R/B               
1 19574U 88093B   26102.28152674  .00000299  00000+0  31620-4 0  9995
2 19574  82.5347  10.5182 0019173 288.6178 191.8378 14.85696184  6000
SL-16 R/B               
1 19650U 88102B   26102.24453388  .00000087  00000+0  68170-4 0  9998
2 19650  70.9983  80.8906 0015879 313.1664  46.8131 14.16159770931641
INTERCOSMOS 24          
1 20261U 89080A   26102.24433655  .00000291  00000+0  83391-4 0  9998
2 20261  82.6020  82.5476 1187196 214.8808 136.8650 12.59595309671020
SL-14 R/B               
1 20262U 89080C   26102.08253473  .00000255  00000+0  66977-4 0  9990
2 20262  82.5931 151.7583 1230955 108.4621 265.4035 12.50523254664324
DELTA 1 R/B             
1 20323U 89089B   26102.28057954  .00000200  00000+0  58148-4 0  9996
2 20323  97.0678 304.3695 0069531  17.6447 342.7144 14.50691078900603
ARIANE 40 R/B           
1 20443U 90005H   26102.16899701  .00000179  00000+0  70352-4 0  9996
2 20443  98.3018 161.8214 0011402 103.6648 256.5811 14.39893507897622
DELTA 2 R/B(1)          
1 20453U 90008B   26102.26665932  .00041589  00000+0  41843-3 0  9990
2 20453  35.6029 313.7383 0076133 214.9432 144.6293 15.60662053931370
COSMOS 2058             
1 20465U 90010A   26102.21260700  .00002312  00000+0  13421-3 0  9997
2 20465  82.4724  14.3999 0008801 211.1121 148.9589 15.11645406947307
SL-14 R/B               
1 20466U 90010B   26102.07264908  .00000383  00000+0  43403-4 0  9996
2 20466  82.5021 236.0254 0019654 185.6796 174.4199 14.83603539933436
SL-14 R/B               
1 20511U 90018B   26102.18996883  .00000279  00000+0  32004-4 0  9990
2 20511  82.5244 191.7871 0015749 346.8914  13.1889 14.82178306927548
HST                     
1 20580U 90037B   26102.27950855  .00004716  00000+0  15002-3 0  9994
2 20580  28.4728 170.7674 0002331 131.9445 228.1350 15.30028777778469
SL-16 R/B               
1 20625U 90046B   26101.92229064 -.00000229  00000+0 -93310-4 0  9992
2 20625  70.9996 228.1144 0016583 256.5152 103.4123 14.15018350853095
COSMOS 2084             
1 20663U 90055A   26102.32545055  .00001784  00000+0  13599-3 0  9995
2 20663  62.7900 220.8373 0011666 202.4748 157.5843 15.05858421941382
SL-6 R/B(2)             
1 20666U 90055D   26102.08847059  .00001154  00000+0  97604-4 0  9991
2 20666  62.7807 140.2589 0030239 354.2472   5.8275 15.03753281943216
SL-8 R/B                
1 20775U 90078B   26102.29694662  .00008957  00000+0  26443-3 0  9990
2 20775  82.9044 221.0611 0356773 260.4921  95.5818 14.90017196814308
