[{"OBJECT_NAME":"SL-8 R/B","OBJECT_ID":"1988-053B","EPOCH":"2026-04-12T06:08:59.961120","MEAN_MOTION":14.38937359,"ECCENTRICITY":0.00211165,"INCLINATION":74.0482,"RA_OF_ASC_NODE":50.5885,"ARG_OF_PERICENTER":225.0701,"MEAN_ANOMALY":297.1641,"EPHEMERIS_TYPE":0,"CLASSIFICATION_TYPE":"U","NORAD_CAT_ID":19257,"ELEMENT_SET_NO":999,"REV_AT_EPOCH":98142,"BSTAR":5.2248326e-5,"MEAN_MOTION_DOT":1.35e-6,"MEAN_MOTION_DDOT":0},{"OBJECT_NAME":"COSMOS 1975","OBJECT_ID":"1988-093A","EPOCH":"2026-04-11T23:39:23.450976","MEAN_MOTION":15.28530946,"ECCENTRICITY":0.00130581,"INCLINATION":82.5167,"RA_OF_ASC_NODE":84.2401,"ARG_OF_PERICENTER":59.7129,"MEAN_ANOMALY":300.54,"EPHEMERIS_TYPE":0,"CLASSIFICATION_TYPE":"U","NORAD_CAT_ID":19573,"ELEMENT_SET_NO":999,"REV_AT_EPOCH":2449,"BSTAR":0.00014373829,"MEAN_MOTION_DOT":4.032e-5,"MEAN_MOTION_DDOT":0},{"OBJECT_NAME":"SL-14 R/B","OBJECT_ID":"1988-093B","EPOCH":"2026-04-12T06:45:23.910336","MEAN_MOTION":14.85696184,"ECCENTRICITY":0.00191737,"INCLINATION":82.5347,"RA_OF_ASC_NODE":10.5182,"ARG_OF_PERICENTER":288.6178,"MEAN_ANOMALY":191.8378,"EPHEMERIS_TYPE":0,"CLASSIFICATION_TYPE":"U","NORAD_CAT_ID":19574,"ELEMENT_SET_NO":999,"REV_AT_EPOCH":600,"BSTAR":3.1620469e-5,"MEAN_MOTION_DOT":2.99e-6,"MEAN_MOTION_DDOT":0},{"OBJECT_NAME":"SL-16 R/B","OBJECT_ID":"1988-102B","EPOCH":"2026-04-12T05:52:07.727232","MEAN_MOTION":14.1615977,"ECCENTRICITY":0.00158798,"INCLINATION":70.9983,"RA_OF_ASC_NODE":80.8906,"ARG_OF_PERICENTER":313.1664,"MEAN_ANOMALY":46.8131,"EPHEMERIS_TYPE":0,"CLASSIFICATION_TYPE":"U","NORAD_CAT_ID":19650,"ELEMENT_SET_NO":999,"REV_AT_EPOCH":93164,"BSTAR":6.8169694e-5,"MEAN_MOTION_DOT":8.7e-7,"MEAN_MOTION_DDOT":0},{"OBJECT_NAME":"INTERCOSMOS 24","OBJECT_ID":"1989-080A","EPOCH":"2026-04-12T05:51:50.677920","MEAN_MOTION":12.59595309,"ECCENTRICITY":0.11871966,"INCLINATION":82.602,"RA_OF_ASC_NODE":82.5476,"ARG_OF_PERICENTER":214.8808,"MEAN_ANOMALY":136.865,"EPHEMERIS_TYPE":0,"CLASSIFICATION_TYPE":"U","NORAD_CAT_ID":20261,"ELEMENT_SET_NO":999,"REV_AT_EPOCH":67102,"BSTAR":8.3391486e-5,"MEAN_MOTION_DOT":2.91e-6,"MEAN_MOTION_DDOT":0},{"OBJECT_NAME":"SL-14 R/B","OBJECT_ID":"1989-080C","EPOCH":"2026-04-12T01:58:51.000672","MEAN_MOTION":12.50523254,"ECCENTRICITY":0.12309553,"INCLINATION":82.5931,"RA_OF_ASC_NODE":151.7583,"ARG_OF_PERICENTER":108.4621,"MEAN_ANOMALY":265.4035,"EPHEMERIS_TYPE":0,"CLASSIFICATION_TYPE":"U","NORAD_CAT_ID":20262,"ELEMENT_SET_NO":999,"REV_AT_EPOCH":66432,"BSTAR":6.6976673e-5,"MEAN_MOTION_DOT":2.55e-6,"MEAN_MOTION_DDOT":0},{"OBJECT_NAME":"DELTA 1 R/B","OBJECT_ID":"1989-089B","EPOCH":"2026-04-12T06:44:02.072256","MEAN_MOTION":14.50691078,"ECCENTRICITY":0.00695312,"INCLINATION":97.0678,"RA_OF_ASC_NODE":304.3695,"ARG_OF_PERICENTER":17.6447,"MEAN_ANOMALY":342.7144,"EPHEMERIS_TYPE":0,"CLASSIFICATION_TYPE":"U","NORAD_CAT_ID":20323,"ELEMENT_SET_NO":999,"REV_AT_EPOCH":90060,"BSTAR":5.8147794e-5,"MEAN_MOTION_DOT":2.0e-6,"MEAN_MOTION_DDOT":0},{"OBJECT_NAME":"ARIANE 40 R/B","OBJECT_ID":"1990-005H","EPOCH":"2026-04-12T04:03:21.341664","MEAN_MOTION":14.39893507,"ECCENTRICITY":0.00114025,"INCLINATION":98.3018,"RA_OF_ASC_NODE":161.8214,"ARG_OF_PERICENTER":103.6648,"MEAN_ANOMALY":256.5811,"EPHEMERIS_TYPE":0,"CLASSIFICATION_TYPE":"U","NORAD_CAT_ID":20443,"ELEMENT_SET_NO":999,"REV_AT_EPOCH":89762,"BSTAR":7.0352411e-5,"MEAN_MOTION_DOT":1.79e-6,"MEAN_MOTION_DDOT":0},{"OBJECT_NAME":"DELTA 2 R/B(1)","OBJECT_ID":"1990-008B","EPOCH":"2026-04-12T06:23:59.365248","MEAN_MOTION":15.60662053,"ECCENTRICITY":0.00761336,"INCLINATION":35.6029,"RA_OF_ASC_NODE":313.7383,"ARG_OF_PERICENTER":214.9432,"MEAN_ANOMALY":144.6293,"EPHEMERIS_TYPE":0,"CLASSIFICATION_TYPE":"U","NORAD_CAT_ID":20453,"ELEMENT_SET_NO":999,"REV_AT_EPOCH":93137,"BSTAR":0.00041842688,"MEAN_MOTION_DOT":0.00041589,"MEAN_MOTION_DDOT":0},{"OBJECT_NAME":"COSMOS 2058","OBJECT_ID":"1990-010A","EPOCH":"2026-04-12T05:06:09.244800","MEAN_MOTION":15.11645406,"ECCENTRICITY":0.00088015,"INCLINATION":82.4724,"RA_OF_ASC_NODE":14.3999,"ARG_OF_PERICENTER":211.1121,"MEAN_ANOMALY":148.9589,"EPHEMERIS_TYPE":0,"CLASSIFICATION_TYPE":"U","NORAD_CAT_ID":20465,"ELEMENT_SET_NO":999,"REV_AT_EPOCH":94730,"BSTAR":0.00013421459,"MEAN_MOTION_DOT":2.312e-5,"MEAN_MOTION_DDOT":0},{"OBJECT_NAME":"SL-14 R/B","OBJECT_ID":"1990-010B","EPOCH":"2026-04-12T01:44:36.880512","MEAN_MOTION":14.83603539,"ECCENTRICITY":0.0019654,"INCLINATION":82.5021,"RA_OF_ASC_NODE":236.0254,"ARG_OF_PERICENTER":185.6796,"MEAN_ANOMALY":174.4199,"EPHEMERIS_TYPE":0,"CLASSIFICATION_TYPE":"U","NORAD_CAT_ID":20466,"ELEMENT_SET_NO":999,"REV_AT_EPOCH":93343,"BSTAR":4.3403378e-5,"MEAN_MOTION_DOT":3.83e-6,"MEAN_MOTION_DDOT":0},{"OBJECT_NAME":"SL-14 R/B","OBJECT_ID":"1990-018B","EPOCH":"2026-04-12T04:33:33.306912","MEAN_MOTION":14.82178306,"ECCENTRICITY":0.00157494,"INCLINATION":82.5244,"RA_OF_ASC_NODE":191.7871,"ARG_OF_PERICENTER":346.8914,"MEAN_ANOMALY":13.1889,"EPHEMERIS_TYPE":0,"CLASSIFICATION_TYPE":"U","NORAD_CAT_ID":20511,"ELEMENT_SET_NO":999,"REV_AT_EPOCH":92754,"BSTAR":3.2003512e-5,"MEAN_MOTION_DOT":2.79e-6,"MEAN_MOTION_DDOT":0},{"OBJECT_NAME":"HST","OBJECT_ID":"1990-037B","EPOCH":"2026-04-12T06:42:29.538720","MEAN_MOTION":15.30028777,"ECCENTRICITY":0.00023311,"INCLINATION":28.4728,"RA_OF_ASC_NODE":170.7674,"ARG_OF_PERICENTER":131.9445,"MEAN_ANOMALY":228.135,"EPHEMERIS_TYPE":0,"CLASSIFICATION_TYPE":"U","NORAD_CAT_ID":20580,"ELEMENT_SET_NO":999,"REV_AT_EPOCH":77846,"BSTAR":0.00015001564,"MEAN_MOTION_DOT":4.716e-5,"MEAN_MOTION_DDOT":0},{"OBJECT_NAME":"SL-16 R/B","OBJECT_ID":"1990-046B","EPOCH":"2026-04-11T22:08:05.911296","MEAN_MOTION":14.1501835,"ECCENTRICITY":0.0016583,"INCLINATION":70.9996,"RA_OF_ASC_NODE":228.1144,"ARG_OF_PERICENTER":256.5152,"MEAN_ANOMALY":103.4123,"EPHEMERIS_TYPE":0,"CLASSIFICATION_TYPE":"U","NORAD_CAT_ID":20625,"ELEMENT_SET_NO":999,"REV_AT_EPOCH":85309,"BSTAR":-9.331e-5,"MEAN_MOTION_DOT":-2.29e-6,"MEAN_MOTION_DDOT":0},{"OBJECT_NAME":"COSMOS 2084","OBJECT_ID":"1990-055A","EPOCH":"2026-04-12T07:48:38.927520","MEAN_MOTION":15.05858421,"ECCENTRICITY":0.0011666,"INCLINATION":62.79,"RA_OF_ASC_NODE":220.8373,"ARG_OF_PERICENTER":202.4748,"MEAN_ANOMALY":157.5843,"EPHEMERIS_TYPE":0,"CLASSIFICATION_TYPE":"U","NORAD_CAT_ID":20663,"ELEMENT_SET_NO":999,"REV_AT_EPOCH":94138,"BSTAR":0.00013599212,"MEAN_MOTION_DOT":1.784e-5,"MEAN_MOTION_DDOT":0},{"OBJECT_NAME":"SL-6 R/B(2)","OBJECT_ID":"1990-055D","EPOCH":"2026-04-12T02:07:23.858976","MEAN_MOTION":15.03753281,"ECCENTRICITY":0.00302393,"INCLINATION":62.7807,"RA_OF_ASC_NODE":140.2589,"ARG_OF_PERICENTER":354.2472,"MEAN_ANOMALY":5.8275,"EPHEMERIS_TYPE":0,"CLASSIFICATION_TYPE":"U","NORAD_CAT_ID":20666,"ELEMENT_SET_NO":999,"REV_AT_EPOCH":94321,"BSTAR":9.7604465e-5,"MEAN_MOTION_DOT":1.154e-5,"MEAN_MOTION_DDOT":0},{"OBJECT_NAME":"SL-8 R/B","OBJECT_ID":"1990-078B","EPOCH":"2026-04-12T07:07:36.187968","MEAN_MOTION":14.90017196,"ECCENTRICITY":0.0356773,"INCLINATION":82.9044,"RA_OF_ASC_NODE":221.0611,"ARG_OF_PERICENTER":260.4921,"MEAN_ANOMALY":95.5818,"EPHEMERIS_TYPE":0,"CLASSIFICATION_TYPE":"U","NORAD_CAT_ID":20775,"ELEMENT_SET_NO":999,"REV_AT_EPOCH":81430,"BSTAR":0.00026442643,"MEAN_MOTION_DOT":8.957e-5,"MEAN_MOTION_DDOT":0}]
